0 OPS 4682 DEB
1  1389U 65027D   19261.09745848  .00000678  00000-0  18846-2 0  9995
2  1389  89.7319 266.9855 0024404 335.1793  95.2633 13.11440597587795
0 THOR ABLESTAR DEB
1  1425U 65048C   19260.69331380 +.00000020 +00000-0 +14823-4 0  9990
2  1425 089.9308 309.2392 0075243 131.7808 346.4895 13.48770166668202
0 THOR ABLESTAR DEB
1  1425U 65048C   19261.20120667  .00000016  00000-0  91119-5 0  9991
2  1425  89.9307 309.2356 0075278 130.3475 292.5684 13.48770163668747
0 THOR ABLESTAR R/B
1  1428U 65048B   19260.69505573 +.00000005 +00000-0 -77346-5 0  9994
2  1428 089.9306 309.7259 0058315 131.7987 343.0132 13.52506458675503
0 TIROS 10
1  1430U 65051A   19260.86997734 +.00000004 +00000-0 +14610-4 0  9996
2  1430 098.2589 030.5561 0055305 290.5319 068.9941 14.40259132841076
0 TIROS 10
1  1430U 65051A   19260.93944955  .00000005  00000-0  14751-4 0  9998
2  1430  98.2589  30.6231 0055304 290.3188  69.2064 14.40259133841523
0 DELTA 1 R/B
1  1433U 65051B   19260.80638082 +.00000065 +00000-0 +25404-4 0  9991
2  1433 098.4440 339.4096 0042214 327.9263 031.9367 14.56687402835605
0 DELTA 1 R/B
1  1433U 65051B   19261.14982567  .00000065  00000-0  25539-4 0  9998
2  1433  98.4439 339.7575 0042193 326.8467  33.0087 14.56687484856478
0 SL-8 DEB
1  1477U 65020BB  19260.68162347 -.00001594 +00000-0 -22441-2 0  9993
2  1477 055.4979 103.0783 0600709 331.2459 025.6541 12.96599896558310
0 SL-8 DEB
1  1479U 65020BD  19260.26612741 +.00000414 +00000-0 +98536-3 0  9994
2  1479 056.0367 306.4294 0760277 236.7647 115.8170 12.58734845485885
0 SL-8 DEB
1  1480U 65020BE  19260.63362157 +.00000246 +00000-0 +46104-3 0  9997
2  1480 056.0751 048.1284 0848774 233.6247 118.3443 12.62581677498696
0 SCOUT B R/B
1  1502U 65063B   19260.78877505 -.00000029 +00000-0 +34120-4 0  9999
2  1502 069.2335 019.4434 0786874 327.6275 142.9230 11.78541135328005
0 THOR ABLESTAR DEB
1  1504U 65065A   19260.44548288 +.00000062 +00000-0 +95985-4 0  9991
2  1504 089.8330 267.1486 0067050 017.6060 107.0723 13.39449724637670
0 SECOR 5 (EGRS 5)
1  1506U 65063A   19260.74671480 +.00000001 +00000-0 +24297-3 0  9995
2  1506 069.2374 014.3357 0788962 320.0628 103.8186 11.78631127327847
0 SECOR 5 (EGRS 5)
1  1506U 65063A   19261.51071507 -.00000001  00000-0  22821-3 0  9997
2  1506  69.2374  13.1805 0788974 319.4576 105.5249 11.78631165328302
0 THOR ABLESTAR R/B
1  1508U 65065B   19260.60447498 +.00000008 +00000-0 -19520-5 0  9997
2  1508 090.1463 269.3943 0043713 083.2101 032.0010 13.35955888636420
0 DODECAPOLE 2
1  1510U 65065C   19260.88548551 +.00001433 +00000-0 +10632-2 0  9996
2  1510 090.0336 013.5704 0038978 016.5932 343.6510 13.94359560688448
0 DODECAPOLE 2
1  1510U 65065C   19261.17253243  .00001420  00000-0  10532-2 0  9995
2  1510  90.0336  13.5714 0038932  15.6531 344.5839 13.94360232688884
0 THOR ABLESTAR DEB
1  1511U 65065D   19260.89375909 +.00000014 +00000-0 +10103-4 0  9992
2  1511 089.8626 228.1583 0067032 294.4331 115.9810 13.33975936632120
0 TEMPSAT 1
1  1512U 65065E   19260.90023274 +.00000012 +00000-0 +65381-5 0  9997
2  1512 089.8596 229.5883 0068805 329.7257 081.3549 13.33421831631633
0 NAVSPASUR ROD 1
1  1515U 65065G   19260.37007537 +.00000279 +00000-0 +42924-3 0  9996
2  1515 089.8914 225.2464 0057712 222.9196 266.5958 13.48684928647888
0 NAVSPASUR ROD 1
1  1515U 65065G   19260.95077007  .00000282  00000-0  43395-3 0  9996
2  1515  89.8915 225.2401 0057741 221.1836 206.0838 13.48685205648419
0 CALSPHERE 4(A)
1  1520U 65065H   19260.87628272 +.00000033 +00000-0 +48059-4 0  9996
2  1520 090.0460 128.0458 0068860 212.6630 243.3593 13.35795327633674
0 CALSPHERE 4(A)
1  1520U 65065H   19261.85522272  .00000039  00000-0  58628-4 0  9997
2  1520  90.0459 128.0502 0068932 209.8512 270.9988 13.35795396634210
0 THOR ABLESTAR DEB
1  1521U 65065K   19260.85771348 +.00000016 +00000-0 +15066-4 0  9991
2  1521 089.8968 220.4968 0068930 340.9378 080.7519 13.33151500631057
0 THOR ABLESTAR DEB
1  1522U 65065L   19260.61455184 +.00000010 +00000-0 +46362-5 0  9991
2  1522 090.1698 094.1231 0069960 332.3258 092.0226 13.33631152631280
0 THOR ABLESTAR DEB
1  1522U 65065L   19261.58314569  .00000015  00000-0  13502-4 0  9993
2  1522  90.1698  94.1392 0069885 329.5682  62.3477 13.33631171631822
0 DELTA 1 DEB
1  1529U 65051D   19260.87727572 +.00000023 +00000-0 +30343-4 0  9999
2  1529 098.9722 032.6599 0037710 089.9937 270.5562 14.22898085804997
0 SL-8 DEB
1  1549U 65020CV  19260.34992358 -.00000248 +00000-0 -19998-3 0  9998
2  1549 056.1752 339.6538 0850012 300.6028 051.3703 12.62701408503478
0 SL-8 DEB
1  1549U 65020CV  19261.37917966 -.00000237  00000-0 -18440-3 0  9993
2  1549  56.1749 336.7773 0850089 302.0240  50.0800 12.62701230504040
0 COSMOS 80
1  1570U 65070A   19260.53400618 -.00000081 +00000-0 +90601-4 0  9996
2  1570 056.0574 317.5603 0101115 219.7816 255.4217 12.52761935472493
0 COSMOS 81
1  1571U 65070B   19260.63190410 -.00000085 +00000-0 +70457-4 0  9995
2  1571 056.0630 358.1965 0089133 015.6082 097.2787 12.48831772464747
0 COSMOS 81
1  1571U 65070B   19261.51113742 -.00000085  00000-0  68269-4 0  9994
2  1571  56.0630 355.8291 0089175  16.7806  90.1392 12.48831783465292
0 COSMOS 82
1  1572U 65070C   19261.49523087 -.00000085  00000-0  58762-4 0  9996
2  1572  56.0623   5.6458 0075096 207.3764 252.4728 12.45089159457878
0 COSMOS 82
1  1572U 65070C   19260.61094688 -.00000087 +00000-0 +45769-4 0  9994
2  1572 056.0622 008.0102 0075124 206.1792 248.8462 12.45089144457362
0 COSMOS 83
1  1573U 65070D   19260.74553444 -.00000105 +00000-0 -87983-4 0  9995
2  1573 056.0555 044.1914 0070147 046.7365 313.9362 12.41013245449486
0 COSMOS 84
1  1574U 65070E   19260.82306135 -.00000102 +00000-0 -76620-4 0  9991
2  1574 056.0531 077.7831 0062345 227.8415 230.4366 12.37004799441499
0 SL-8 R/B
1  1575U 65070F   19260.85646293 -.00000091 +00000-0 +39379-4 0  9993
2  1575 056.1275 358.1872 0096546 348.1933 149.1389 12.56968342480903
0 SL-8 R/B
1  1575U 65070F   19261.81331632 -.00000099  00000-0 -11461-4 0  9999
2  1575  56.1271 355.5757 0096604 349.4759 158.9926 12.56968326481398
0 PORCUPINE 2
1  1577U 65065J   19260.84236809 +.00000059 +00000-0 +97392-4 0  9998
2  1577 089.9044 220.4719 0068797 212.3410 204.7292 13.35764892633625
0 THOR ALTAIR R/B
1  1583U 65072D   19260.48189995 +.00000131 +00000-0 +36309-4 0  9998
2  1583 098.4085 049.3752 0159257 294.0808 064.3798 14.56063945807558
0 THOR ALTAIR R/B
1  1583U 65072D   19261.03164547  .00000133  00000-0  36691-4 0  9992
2  1583  98.4086  49.9295 0159244 292.3735  66.0654 14.56064142828354
0 COSMOS 86
1  1584U 65073A   19260.58804723 -.00000080 +00000-0 +92734-4 0  9992
2  1584 056.0610 340.0976 0212255 186.3310 289.2592 12.51872651468818
0 COSMOS 87
1  1585U 65073B   19260.80160153 -.00000111 +00000-0 -10247-3 0  9994
2  1585 056.0617 066.9071 0200682 320.4516 138.5690 12.47425776458424
0 COSMOS 88
1  1586U 65073C   19260.80803463 -.00000083 +00000-0 +79582-4 0  9998
2  1586 056.0589 114.2703 0189462 125.9496 326.9949 12.43313705452135
0 COSMOS 89
1  1587U 65073D   19260.12767217 -.00000088 +00000-0 +30406-4 0  9997
2  1587 056.0572 184.8581 0168447 292.6147 065.7013 12.38956670443453
0 SL-8 R/B
1  1589U 65073F   19260.70245140 -.00000105 +00000-0 -10295-3 0  9993
2  1589 056.0533 038.9057 0164295 035.9390 057.2516 12.33022249431737
0 SL-8 R/B
1  1589U 65073F   19261.84394174 -.00000101  00000-0 -72124-4 0  9997
2  1589  56.0535  35.9201 0164334  37.4194  84.2004 12.33022237432268
0 SL-8 DEB
1  1591U 65073H   19261.11057285  .00000117  00000-0  14550-2 0  9991
2  1591  56.0567 228.8365 0160381 292.8247 162.3677 12.42186003442913
0 SL-8 DEB
1  1591U 65073H   19260.22518685 +.00000051 +00000-0 +10019-2 0  9991
2  1591 056.0566 231.1922 0160403 291.6153 163.0700 12.42185259442351
0 THOR ABLESTAR DEB
1  1608U 64083H   19260.62943226 +.00000208 +00000-0 +18443-3 0  9991
2  1608 089.8061 126.6456 0021952 051.4509 000.8097 13.81631399734251
0 OV1-2
1  1613U 65078A   19261.72081133  .00000782  00000-0  37888-4 0  9996
2  1613 144.2338 172.5650 1226629  98.0435 276.0852 12.78585875397422
0 ATLAS D R/B
1  1616U 65078B   19261.84870653  .00000873  00000-0  48757-4 0  9993
2  1616 144.2337 229.8662 1096528 204.0605 150.4683 13.07865844425603
0 SL-8 DEB
1  1618U 65073K   19260.79464185 -.00000083 +00000-0 +55810-4 0  9994
2  1618 056.1794 060.1772 0226196 353.5919 120.6767 12.29794051419894
0 SL-8 DEB
1  1634U 65020ED  19260.42025042 +.00000095 +00000-0 +36434-3 0  9991
2  1634 056.1548 286.3491 0837726 009.4574 352.1061 12.47351619454831
0 SL-8 DEB
1  1634U 65020ED  19261.22174683  .00000086  00000-0  34792-3 0  9991
2  1634  56.1546 284.1718 0837808  10.5283 351.2020 12.47351947455399
0 TITAN 3C TRANSTAGE DEB
1  1642U 65082D   19260.85012916 +.00000110 +00000-0 +86230-5 0  9990
2  1642 032.0945 080.6599 0025231 088.2066 272.1472 14.79131237872020
0 TITAN 3C TRANSTAGE DEB
1  1642U 65082D   19261.79498349  .00000111  00000-0  87646-5 0  9995
2  1642  32.0945  74.9180 0025230  97.1135 263.2384 14.79131400893384
0 TITAN 3C TRANSTAGE DEB
1  1646U 65082H   19261.79366761  .00000111  00000-0  11806-4 0  9995
2  1646  32.3121  36.4474 0002411  71.1573 288.9340 14.71849534877722
0 TITAN 3C TRANSTAGE DEB
1  1646U 65082H   19260.84411614 +.00000107 +00000-0 +11091-4 0  9999
2  1646 032.3120 042.1377 0002434 061.3271 298.7624 14.71849359856476
0 TITAN 3C TRANSTAGE DEB
1  1653U 65082Q   19260.72718829 +.00000081 +00000-0 +81523-5 0  9991
2  1653 032.1206 355.6274 0041922 108.7865 251.7334 14.62194982850358
